ONEWEB-0336             
1 49202U 21083S   26168.94426069  .00000345  00000+0  90877-3 0  9999
2 49202  87.8952 320.0768 0002239  92.4956 267.6429 13.13470476231014
ONEWEB-0337             
1 49203U 21083T   26168.95428527  .00000277  00000+0  72299-3 0  9994
2 49203  87.8952 320.0807 0002040  98.5203 261.6158 13.13469901231015
ONEWEB-0338             
1 49204U 21083U   26168.79867281  .00000022  00000+0  21930-4 0  9996
2 49204  87.9186 274.3267 0001688 104.3964 255.7356 13.20774140236891
ONEWEB-0339             
1 49205U 21083V   26168.96287947  .00000092  00000+0  21645-3 0  9990
2 49205  87.8952 320.0715 0001667 104.7391 255.3924 13.13469906230999
ONEWEB-0340             
1 49206U 21083W   26168.96816972  .00000004  00000+0 -22024-4 0  9994
2 49206  87.9171 335.2998 0001980  91.4067 268.7292 13.18685284230074
ONEWEB-0341             
1 49207U 21083X   26168.97491509 -.00000035  00000+0 -12093-3 0  9990
2 49207  87.9165 335.3016 0002272 101.7573 258.3814 13.18685860230099
ONEWEB-0342             
1 49208U 21083Y   26168.80541492  .00000036  00000+0  57217-4 0  9997
2 49208  87.9195 274.3134 0001951 103.5580 256.5771 13.20771183236867
ONEWEB-0343             
1 49209U 21083Z   26168.98334816 -.00000052  00000+0 -16515-3 0  9992
2 49209  87.9166 335.2987 0001645 105.4750 254.6564 13.18686091230143
ONEWEB-0344             
1 49210U 21083AA  26168.95779064  .00000230  00000+0  59597-3 0  9992
2 49210  87.8944 320.0868 0002166 102.6825 257.4547 13.13471744230996
ONEWEB-0345             
1 49211U 21083AB  26168.94933215  .00000307  00000+0  80547-3 0  9996
2 49211  87.8963 320.0696 0002048 102.2350 257.9008 13.13470628231005
ONEWEB-0346             
1 49212U 21083AC  26168.97997406  .00000005  00000+0 -20340-4 0  9994
2 49212  87.9161 335.2995 0002298  79.7046 280.4345 13.18685551230084
ONEWEB-0348             
1 49213U 21083AD  26168.79531318  .00000062  00000+0  11975-3 0  9996
2 49213  87.9196 274.3194 0002474  95.9862 264.1554 13.20770769236894
ONEWEB-0350             
1 49214U 21083AE  26168.96629995  .00000027  00000+0  39760-4 0  9999
2 49214  87.8957 320.0708 0002110  99.3279 260.8088 13.12942631231032
ONEWEB-0351             
1 49215U 21083AF  26168.78843385  .00000063  00000+0  12414-3 0  9997
2 49215  87.9197 274.3195 0002076 125.5465 234.5863 13.20770762236858
ONEWEB-0352             
1 49216U 21083AG  26168.93918353  .00000259  00000+0  67385-3 0  9997
2 49216  87.8954 320.0828 0001670 109.7823 250.3486 13.13470761231122
ONEWEB-0354             
1 49217U 21083AH  26169.27005287  .00000059  00000+0  11201-3 0  9993
2 49217  87.9197 274.2223 0002406 100.0977 260.0428 13.20772899236959
ONEWEB-0355             
1 49218U 21083AJ  26168.96810044 -.00000064  00000+0 -20884-3 0  9999
2 49218  87.8951 320.0780 0001895 103.4532 256.6808 13.13469190231003
ONEWEB-0357             
1 49219U 21083AK  26168.81214542  .00000056  00000+0  10499-3 0  9995
2 49219  87.9196 274.3078 0001945 106.4919 253.6429 13.20772861236893
ONEWEB-0332             
1 49279U 21090A   26168.82757019 -.00000233  00000+0 -66174-3 0  9991
2 49279  87.8964 289.5812 0001713 102.0627 258.0694 13.14501863227669
ONEWEB-0347             
1 49280U 21090B   26168.80204861  .00000010  00000+0 -83133-5 0  9991
2 49280  87.9196 274.3179 0001683 101.0662 259.0661 13.20771216231120
ONEWEB-0349             
1 49281U 21090C   26169.28857497  .00000052  00000+0  95172-4 0  9994
2 49281  87.9195 274.2215 0002019 101.3107 258.8254 13.20772653229972
ONEWEB-0353             
1 49282U 21090D   26169.27635694 -.00000103  00000+0 -31362-3 0  9996
2 49282  87.8968 289.4870 0001646 100.5373 259.5942 13.14503055227720
ONEWEB-0356             
1 49283U 21090E   26169.28688187  .00000037  00000+0  58994-4 0  9998
2 49283  87.9195 274.2152 0002022  77.0338 283.1021 13.20773607229976
ONEWEB-0358             
1 49284U 21090F   26168.78975362  .00000032  00000+0  46239-4 0  9991
2 49284  87.9198 274.3200 0002106  95.5162 264.6211 13.20237284230634
ONEWEB-0359             
1 49285U 21090G   26168.85927934  .00000059  00000+0  11208-3 0  9998
2 49285  87.9194 274.3003 0002283  99.1149 261.0243 13.20773520230626
ONEWEB-0360             
1 49286U 21090H   26169.22795157  .00000079  00000+0  16312-3 0  9994
2 49286  87.9192 274.2333 0002025 102.8167 257.3193 13.20769408229985
ONEWEB-0361             
1 49287U 21090J   26168.83066220 -.00000016  00000+0 -71737-4 0  9999
2 49287  87.9196 274.3106 0002089  98.0707 262.0663 13.20771311230382
ONEWEB-0362             
1 49288U 21090K   26168.93539550 -.00000013  00000+0 -65151-4 0  9992
2 49288  87.9170 304.8286 0001948 107.0638 253.0709 13.19724481227011
ONEWEB-0363             
1 49289U 21090L   26169.22459574  .00000077  00000+0  15663-3 0  9993
2 49289  87.9195 274.2323 0002037  90.9808 269.1559 13.20770915230447
ONEWEB-0364             
1 49290U 21090M   26169.26331830  .00000169  00000+0  38456-3 0  9990
2 49290  87.9194 274.2327 0002014 101.4270 258.7090 13.20771969231588
